{
    "links": {
        "self": "http://www.neowsapp.com/rest/v1/neo/3727340?api_key=iIulBulltgU6a56xZRHN4H3l9WmuAYTsLGpBGhQ2"
    },
    "id": "3727340",
    "neo_reference_id": "3727340",
    "name": "(2015 RM82)",
    "designation": "2015 RM82",
    "nasa_jpl_url": "http://ssd.jpl.nasa.gov/sbdb.cgi?sstr=3727340",
    "absolute_magnitude_h": 22.8,
    "estimated_diameter": {
        "kilometers": {
            "estimated_diameter_min": 0.0732073989,
            "estimated_diameter_max": 0.1636967205
        },
        "meters": {
            "estimated_diameter_min": 73.2073989347,
            "estimated_diameter_max": 163.696720474
        },
        "miles": {
            "estimated_diameter_min": 0.0454889547,
            "estimated_diameter_max": 0.1017163949
        },
        "feet": {
            "estimated_diameter_min": 240.181762721,
            "estimated_diameter_max": 537.0627483999
        }
    },
    "is_potentially_hazardous_asteroid": false,
    "close_approach_data": [
        {
            "close_approach_date": "1952-01-03",
            "close_approach_date_full": "1952-Jan-03 07:45",
            "epoch_date_close_approach": -567879300000,
            "relative_velocity": {
                "kilometers_per_second": "17.8602354309",
                "kilometers_per_hour": "64296.847551344",
                "miles_per_hour": "39951.5606354449"
            },
            "miss_distance": {
                "astronomical": "0.1005180632",
                "lunar": "39.1015265848",
                "kilometers": "15037288.151245384",
                "miles": "9343737.5823149392"
            },
            "orbiting_body": "Venus"
        },
        {
            "close_approach_date": "1953-03-27",
            "close_approach_date_full": "1953-Mar-27 09:25",
            "epoch_date_close_approach": -529079700000,
            "relative_velocity": {
                "kilometers_per_second": "17.6194771383",
                "kilometers_per_hour": "63430.1176977562",
                "miles_per_hour": "39413.0084105863"
            },
            "miss_distance": {
                "astronomical": "0.0930735635",
                "lunar": "36.2056162015",
                "kilometers": "13923606.852909745",
                "miles": "8651728.112434681"
            },
            "orbiting_body": "Venus"
        },
        {
            "close_approach_date": "2015-09-21",
            "close_approach_date_full": "2015-Sep-21 15:52",
            "epoch_date_close_approach": 1442850720000,
            "relative_velocity": {
                "kilometers_per_second": "13.169107968",
                "kilometers_per_hour": "47408.7886846916",
                "miles_per_hour": "29457.9776135519"
            },
            "miss_distance": {
                "astronomical": "0.4309651357",
                "lunar": "167.6454377873",
                "kilometers": "64471466.344980959",
                "miles": "40060711.5468928742"
            },
            "orbiting_body": "Earth"
        },
        {
            "close_approach_date": "2016-02-27",
            "close_approach_date_full": "2016-Feb-27 06:05",
            "epoch_date_close_approach": 1456553100000,
            "relative_velocity": {
                "kilometers_per_second": "16.3531433412",
                "kilometers_per_hour": "58871.3160283268",
                "miles_per_hour": "36580.3463399345"
            },
            "miss_distance": {
                "astronomical": "0.2510692359",
                "lunar": "97.6659327651",
                "kilometers": "37559422.913167533",
                "miles": "23338343.1848886354"
            },
            "orbiting_body": "Earth"
        },
        {
            "close_approach_date": "2153-02-28",
            "close_approach_date_full": "2153-Feb-28 12:03",
            "epoch_date_close_approach": 5780030580000,
            "relative_velocity": {
                "kilometers_per_second": "15.0600674556",
                "kilometers_per_hour": "54216.242840317",
                "miles_per_hour": "33687.8648915292"
            },
            "miss_distance": {
                "astronomical": "0.1090639647",
                "lunar": "42.4258822683",
                "kilometers": "16315736.812875189",
                "miles": "10138128.7442440482"
            },
            "orbiting_body": "Venus"
        }
    ],
    "orbital_data": {
        "orbit_id": "3",
        "orbit_determination_date": "2017-04-06 08:32:01",
        "first_observation_date": "2015-09-09",
        "last_observation_date": "2015-09-15",
        "data_arc_in_days": 6,
        "observations_used": 15,
        "orbit_uncertainty": "9",
        "minimum_orbit_intersection": ".214839",
        "jupiter_tisserand_invariant": "5.332",
        "epoch_osculation": "2457277.5",
        "eccentricity": ".3575343299341787",
        "semi_major_axis": "1.150878695949422",
        "inclination": "22.7070917580885",
        "ascending_node_longitude": "168.5614405682666",
        "orbital_period": "450.9649129368674",
        "perihelion_distance": ".739400052557624",
        "perihelion_argument": "329.4056655681884",
        "aphelion_distance": "1.56235733934122",
        "perihelion_time": "2457431.242604155541",
        "mean_anomaly": "237.2690825644277",
        "mean_motion": ".7982882696029124",
        "equinox": "J2000",
        "orbit_class": {
            "orbit_class_type": "APO",
            "orbit_class_description": "Near-Earth asteroid orbits which cross the Earth’s orbit similar to that of 1862 Apollo",
            "orbit_class_range": "a (semi-major axis) > 1.0 AU; q (perihelion) < 1.017 AU"
        }
    },
    "is_sentry_object": false
}